[{"OBJECT_NAME":"GNOMES-3","OBJECT_ID":"2022-033B","EPOCH":"2026-03-09T16:59:59.477856","MEAN_MOTION":14.84669331,"ECCENTRICITY":0.00095992,"INCLINATION":97.8285,"RA_OF_ASC_NODE":146.8032,"ARG_OF_PERICENTER":290.7124,"MEAN_ANOMALY":69.3062,"EPHEMERIS_TYPE":0,"CLASSIFICATION_TYPE":"U","NORAD_CAT_ID":52158,"ELEMENT_SET_NO":999,"REV_AT_EPOCH":21257,"BSTAR":0.00036144772,"MEAN_MOTION_DOT":3.007e-5,"MEAN_MOTION_DDOT":0},{"OBJECT_NAME":"CLOUDSAT","OBJECT_ID":"2006-016A","EPOCH":"2026-03-09T23:36:20.904192","MEAN_MOTION":14.86172924,"ECCENTRICITY":0.00040939,"INCLINATION":98.4053,"RA_OF_ASC_NODE":100.731,"ARG_OF_PERICENTER":300.1653,"MEAN_ANOMALY":59.9155,"EPHEMERIS_TYPE":0,"CLASSIFICATION_TYPE":"U","NORAD_CAT_ID":29107,"ELEMENT_SET_NO":999,"REV_AT_EPOCH":5977,"BSTAR":0.00018027115,"MEAN_MOTION_DOT":1.521e-5,"MEAN_MOTION_DDOT":0}]
